360P/WISE,e,24.1072,2.1902,354.1340,3.701955,0.1383749,0.49900544,201.6379,08/16.0/2021,2000,g 19.5,6.0
# From MPC114609
361P/Spacewatch,e,13.8942,203.2504,219.0409,4.938141,0.0898171,0.43816691,102.4557,08/16.0/2021,2000,g 12.0,4.0
# From MPEC 2017-V13
362P/,e,15.5563,192.5632,53.7011,3.969233,0.1246362,0.27933880,226.7059,08/16.0/2021,2000,g 12.9,2.0
# From MPC114609
363P/Lemmon,e,5.4072,146.8950,341.2637,3.553258,0.1471512,0.52449304,185.9101,08/16.0/2021,2000,g 17.5,4.0
# From MPEC 2021-F20
364P/PANSTARRS,e,12.1387,46.1846,212.0117,2.879355,0.2017257,0.72213724,231.7276,08/16.0/2021,2000,g 17.0,2.0
# From MPC111775
365P/PANSTARRS,e,9.8231,87.1521,66.4510,3.174022,0.1742967,0.57796467,223.0468,08/16.0/2021,2000,g 17.0,4.0
# From MPC114610
366P/Spacewatch,e,8.8586,70.7598,153.1319,3.495866,0.1507898,0.34820562,169.2639,08/16.0/2021,2000,g 15.0,4.0
# From MPC112395
367P/Catalina,e,8.4620,58.7214,172.9008,3.505925,0.1501413,0.28015701,173.0132,08/16.0/2021,2000,g 17.5,2.0
# From MPC114610
368P/NEAT,e,15.4812,257.9335,118.8001,5.527189,0.0758486,0.62649197,80.8732,08/16.0/2021,2000,g 14.0,4.0
# From MPC114610
369P/Hill,e,10.3155,47.2936,13.1724,4.383910,0.1073771,0.55454289,111.2179,08/16.0/2021,2000,g 15.0,4.0
# From MPEC 2021-F20
370P/NEAT,e,19.4072,55.1101,356.6800,6.434545,0.0603847,0.61469832,70.2474,08/16.0/2021,2000,g 13.0,4.0
# From MPC114610
371P/LINEAR-Skiff,e,17.3780,67.2933,308.4695,4.180953,0.1152899,0.47674658,120.5825,08/16.0/2021,2000,g 16.0,4.0
# From MPEC 2020-K19
372P/McNaught,e,9.5102,325.8156,27.3425,4.504889,0.1030809,0.15274184,106.0375,08/16.0/2021,2000,g 13.5,4.0
# From MPEC 2021-F20
373P/Rinner,e,13.7624,231.9484,221.0846,3.803266,0.1328829,0.39223334,114.3156,08/16.0/2021,2000,g 14.5,4.0
# From MPC114610
374P/Larson,e,10.7646,7.9122,51.4785,4.973252,0.0888676,0.46261994,84.2659,08/16.0/2021,2000,g 14.0,4.0
# From MPEC 2021-F20
375P/Hill,e,17.3614,359.9471,119.4464,5.555494,0.0752697,0.65854349,72.9431,08/16.0/2021,2000,g 16.0,4.0
# From MPEC 2020-W26
376P/LONEOS,e,1.1894,314.7387,284.6894,5.826052,0.0700878,0.51724452,48.3252,08/16.0/2021,2000,g 12.5,4.0
# From MPEC 2021-N06
377P/Scotti,e,9.0233,226.0607,355.0468,6.710023,0.0567046,0.25224764,22.6801,08/16.0/2021,2000,g  9.5,4.0
# From MPEC 2021-O56
378P/McNaught,e,19.0528,94.3789,193.8740,6.375669,0.0612231,0.47015725,18.4073,08/16.0/2021,2000,g 12.0,4.0
# From MPC115889
379P/Spacewatch,e,12.4265,183.8236,30.9283,3.519920,0.1492467,0.34031814,111.3154,08/16.0/2021,2000,g 15.0,4.0
# From MPEC 2020-KB7
380P/PANSTARRS,e,8.2814,132.9742,88.1275,4.502038,0.1031788,0.33357001,83.2029,08/16.0/2021,2000,g 12.5,4.0
# From MPEC 2021-J28
381P/LINEAR-Spacewatch,e,28.3765,173.7671,173.1821,7.125329,0.0518199,0.68188798,35.6994,08/16.0/2021,2000,g 17.5,2.0
# From MPEC 2021-P47
382P/Larson,e,7.9564,174.6505,173.0651,6.430729,0.0604385,0.31430557,347.3108,08/16.0/2021,2000,g  8.0,4.0
# From MPC118844
383P/Christensen,e,12.3215,207.8621,133.6930,3.545477,0.1476359,0.59962290,97.3878,08/16.0/2021,2000,g 18.0,4.0
# From MPEC 2020-W26
384P/Kowalski,e,7.2842,354.2293,37.6178,2.900948,0.1994776,0.61566246,134.5324,08/16.0/2021,2000,g 19.5,4.0
# From MPEC 2021-F20
385P/Hill,e,16.8306,357.0612,44.3221,4.288344,0.1109864,0.40155135,77.8124,08/16.0/2021,2000,g 13.0,4.0
# From MPEC 2021-L04
386P/PANSTARRS,e,15.2296,134.9480,353.2119,4.056296,0.1206451,0.41625837,43.6454,08/16.0/2021,2000,g 14.5,4.0
# From MPEC 2021-J28
387P/Boattini,e,8.9195,259.3116,162.7700,4.798200,0.0937749,0.73616561,66.5558,08/16.0/2021,2000,g 15.0,4.0
# From MPEC 2021-F20
388P/Gibbs,e,23.8707,37.0421,42.3520,5.243610,0.0820840,0.61805284,61.9268,08/16.0/2021,2000,g 13.0,4.0
# From MPEC 2021-J28
389P/Siding Spring,e,160.0707,218.8538,249.3190,5.627821,0.0738233,0.70430669,43.9831,08/16.0/2021,2000,g 16.0,4.0
# From MPEC 2021-O56
390P/Gibbs,e,18.5620,152.2748,232.3525,5.804140,0.0704851,0.70717601,36.0659,08/16.0/2021,2000,g 12.0,4.0
# From MPEC 2021-F20
391P/Kowalski,e,21.2757,124.7314,187.0354,4.679505,0.0973653,0.12061914,121.0801,08/16.0/2021,2000,g  8.0,4.0
# From MPEC 2021-J28
392P/LINEAR,e,4.9306,24.8812,71.9519,6.144862,0.0647047,0.68278903,32.4962,08/16.0/2021,2000,g 14.5,4.0
# From MPEC 2021-BE3
393P/Spacewatch-Hill,e,16.7903,36.4138,328.2948,4.787246,0.0940969,0.12060640,62.0920,08/16.0/2021,2000,g 11.0,4.0
# From MPEC 2020-KB7
394P/PANSTARRS,e,8.5294,98.1252,54.5213,4.331966,0.1093142,0.36778172,68.2927,08/16.0/2021,2000,g 16.0,2.4
# From MPEC 2021-P47
395P/Catalina-NEAT,e,3.2769,223.7339,89.7994,6.546692,0.0588398,0.37909759,351.9607,08/16.0/2021,2000,g 10.0,4.0
# From MPEC 2020-KB7
396P/,e,5.4363,136.6642,8.5776,6.816504,0.0553811,0.41585831,39.7959,08/16.0/2021,2000,g 12.0,4.0
# From MPEC 2021-O56
397P/Lemmon,e,10.9286,8.2011,14.4429,3.827775,0.1316087,0.40511152,55.6163,08/16.0/2021,2000,g 12.0,4.0
# From MPEC 2021-L04
398P/Boattini,e,11.0154,127.4619,320.2281,3.128071,0.1781514,0.58263922,41.3772,08/16.0/2021,2000,g 15.5,4.0
# From MPEC 2021-F20
399P/PANSTARRS,e,13.3188,207.1451,214.2941,3.789615,0.1336015,0.44690242,11.4134,08/16.0/2021,2000,g 15.6,4.0
# From MPEC 2020-FB5
400P/PANSTARRS,e,10.9291,176.3943,238.7947,3.560026,0.1467318,0.40917652,27.4219,08/16.0/2021,2000,g 15.5,2.8
# From MPEC 2021-BE3
401P/McNaught,e,12.8034,359.8838,309.3408,5.773191,0.0710526,0.58009922,43.8652,08/16.0/2021,2000,g 12.5,4.0
# From MPEC 2021-J28
402P/LINEAR,e,30.8526,123.0895,326.7388,7.011761,0.0530840,0.43839212,353.5987,08/16.0/2021,2000,g  8.0,4.0
# From MPEC 2021-J28
403P/Catalina,e,12.3212,163.8125,277.6616,5.427301,0.0779522,0.50343881,26.0091,08/16.0/2021,2000,g 12.0,4.0
# From MPEC 2021-P47
404P/Bressi,e,9.7271,261.6006,163.0753,4.818184,0.0931921,0.13690805,288.1416,08/16.0/2021,2000,g 10.0,4.0
# From MPEC 2021-L04
405P/Lemmon,e,9.3654,3.3137,112.2367,3.608669,0.1437750,0.68913475,33.7432,08/16.0/2021,2000,g 17.5,4.0
# From MPEC 2021-F20
406P/Gibbs,e,1.2135,11.4706,352.3837,3.574462,0.1458438,0.54201862,48.7491,08/16.0/2021,2000,g 17.0,4.0
# From MPEC 2021-F20
407P/PANSTARRS-Fuls,e,4.8903,80.8013,92.6668,3.460786,0.1530883,0.38460422,85.9824,08/16.0/2021,2000,g 14.0,4.0
# From MPEC 2021-P47
408P/Novichonok-Gerke,e,19.3345,189.4446,226.0957,4.759543,0.0949197,0.27099377,320.8135,08/16.0/2021,2000,g 11.0,4.0
# From MPEC 2021-O56
409P/LONEOS-Hill,e,17.1188,143.6714,15.1305,6.047180,0.0662788,0.70994181,13.2455,08/16.0/2021,2000,g 14.0,4.0
# From MPEC 2021-F20
410P/NEAT-LINEAR,e,9.3938,139.9803,313.0928,6.632481,0.0577019,0.51043556,3.0840,08/16.0/2021,2000,g 12.5,4.0
# From MPEC 2021-J28
411P/Christensen,e,12.3776,77.6701,46.6673,5.817862,0.0702359,0.58083163,14.2996,08/16.0/2021,2000,g 13.5,4.0
# From MPEC 2021-F20
412P/WISE,e,8.9312,0.8492,155.9170,3.109540,0.1797463,0.47978667,45.5909,08/16.0/2021,2000,g 17.0,4.0
# From MPEC 2021-O56
413P/Larson,e,15.9783,39.0254,186.0418,3.710278,0.1379095,0.42325637,3.6943,08/16.0/2021,2000,g 14.0,4.0
# From MPEC 2021-BE3
414P/STEREO,e,23.3838,257.7893,210.7306,2.794580,0.2109742,0.81163869,42.7481,08/16.0/2021,2000,g 19.0,4.0
# From MPEC 2021-N06
415P/Tenagra,e,31.7916,160.2945,346.2567,4.115588,0.1180474,0.19477549,21.4673,08/16.0/2021,2000,g 12.0,4.0
# From MPEC 2021-L04
416P/Scotti,e,3.3613,355.8122,134.5110,4.013237,0.1225919,0.45434398,22.2561,08/16.0/2021,2000,g 15.5,4.0
# From MPEC 2021-P47
417P/NEOWISE,e,8.1307,111.3508,129.4676,3.348814,0.1608301,0.55445423,18.6257,08/16.0/2021,2000,g 16.5,4.0
# From MPEC 2021-L04
418P/LINEAR,e,5.7974,277.6589,307.0975,5.080892,0.0860586,0.66484294,354.6159,08/16.0/2021,2000,g 13.0,4.0
# From MPEC 2021-N06
419P/PANSTARRS,e,2.8029,40.3897,187.4966,3.521507,0.1491459,0.27778999,349.1957,08/16.0/2021,2000,g 12.5,4.0
# From MPEC 2021-P47
420P/Hill,e,14.5031,173.9591,157.1301,5.521565,0.0759645,0.49501205,338.7509,08/16.0/2021,2000,g 11.5,4.0
# From MPEC 2021-L04
421P/McNaught,e,10.0804,55.3486,259.8205,5.075719,0.0861902,0.67560273,17.4256,08/16.0/2021,2000,g 14.0,4.0
# From MPC107687
1I/`Oumuamua,h,09/09.4886/2017,122.6778,24.5997,241.6845,1.199252,0.255240,2000,23.0,2.0
# From MPEC 2020-K19
2I/Borisov,h,12/08.5549/2019,44.0527,308.1480,209.1251,3.356636,2.006548,2000,11.0,4.0
